[
    {
        "Altitude(m)": 617710.7035544531,
        "Argument of Periapsis(deg)": 0.0,
        "Eccentricity": 0.0,
        "Inclination(deg)": 60.0,
        "Latitude(deg)": -41.10283311436133,
        "Longitude(deg)": -100.03336575009943,
        "Mean Anomaly(deg)": 310.9091000000001,
        "RAAN(deg)": 30.0,
        "Satellite Name": "Test1 151",
        "Satellite Number": 151,
        "Semi-Major Axis(m)": 6980739.136638005,
        "Time(s)": 0
    },
    {
        "Altitude(m)": 617518.001877212,
        "Argument of Periapsis(deg)": 0.00010418945913296404,
        "Eccentricity": 0.0,
        "Inclination(deg)": 60.0,
        "Latitude(deg)": -40.63704003701631,
        "Longitude(deg)": -99.5365709339589,
        "Mean Anomaly(deg)": 311.5292061454619,
        "RAAN(deg)": 29.99957995086026,
        "Satellite Name": "Test1 151",
        "Satellite Number": 151,
        "Semi-Major Axis(m)": 6980739.136638005,
        "Time(s)": 10
    },
    {
        "Altitude(m)": 617324.3230756177,
        "Argument of Periapsis(deg)": 0.0002083789182659281,
        "Eccentricity": 0.0,
        "Inclination(deg)": 60.0,
        "Latitude(deg)": -40.168721626355854,
        "Longitude(deg)": -99.04720402834313,
        "Mean Anomaly(deg)": 312.1493122909237,
        "RAAN(deg)": 29.999159901720517,
        "Satellite Name": "Test1 151",
        "Satellite Number": 151,
        "Semi-Major Axis(m)": 6980739.136638005,
        "Time(s)": 20
    },
    {
        "Altitude(m)": 617129.7411305256,
        "Argument of Periapsis(deg)": 0.00031256837739889213,
        "Eccentricity": 0.0,
        "Inclination(deg)": 60.0,
        "Latitude(deg)": -39.69795101472229,
        "Longitude(deg)": -98.56508057799165,
        "Mean Anomaly(deg)": 312.76941843638554,
        "RAAN(deg)": 29.99873985258077,
        "Satellite Name": "Test1 151",
        "Satellite Number": 151,
        "Semi-Major Axis(m)": 6980739.136638005,
        "Time(s)": 30
    },
    {
        "Altitude(m)": 616934.3302715172,
        "Argument of Periapsis(deg)": 0.0004167578365318562,
        "Eccentricity": 0.0,
        "Inclination(deg)": 60.0,
        "Latitude(deg)": -39.22479911176945,
        "Longitude(deg)": -98.09001910587315,
        "Mean Anomaly(deg)": 313.38952458184735,
        "RAAN(deg)": 29.998319803441028,
        "Satellite Name": "Test1 151",
        "Satellite Number": 151,
        "Semi-Major Axis(m)": 6980739.136638005,
        "Time(s)": 40
    },
    {
        "Altitude(m)": 616738.1649444374,
        "Argument of Periapsis(deg)": 0.0005209472956648203,
        "Eccentricity": 0.0,
        "Inclination(deg)": 60.0,
        "Latitude(deg)": -38.74933467685844,
        "Longitude(deg)": -97.62184213638321,
        "Mean Anomaly(deg)": 314.00963072730923,
        "RAAN(deg)": 29.997899754301283,
        "Satellite Name": "Test1 151",
        "Satellite Number": 151,
        "Semi-Major Axis(m)": 6980739.136638005,
        "Time(s)": 50
    },
    {
        "Altitude(m)": 616541.3197788239,
        "Argument of Periapsis(deg)": 0.0006251367547977843,
        "Eccentricity": 0.0,
        "Inclination(deg)": 60.0,
        "Latitude(deg)": -38.27162438996984,
        "Longitude(deg)": -97.16037569478425,
        "Mean Anomaly(deg)": 314.629736872771,
        "RAAN(deg)": 29.99747970516154,
        "Satellite Name": "Test1 151",
        "Satellite Number": 151,
        "Semi-Major Axis(m)": 6980739.136638005,
        "Time(s)": 60
    },
    {
        "Altitude(m)": 616343.8695551994,
        "Argument of Periapsis(deg)": 0.0007293262139307483,
        "Eccentricity": 0.0,
        "Inclination(deg)": 60.0,
        "Latitude(deg)": -37.79173292106199,
        "Longitude(deg)": -96.7054487968909,
        "Mean Anomaly(deg)": 315.24984301823287,
        "RAAN(deg)": 29.997059656021797,
        "Satellite Name": "Test1 151",
        "Satellite Number": 151,
        "Semi-Major Axis(m)": 6980739.136638005,
        "Time(s)": 70
    },
    {
        "Altitude(m)": 616145.8891723116,
        "Argument of Periapsis(deg)": 0.0008335156730637124,
        "Eccentricity": 0.0,
        "Inclination(deg)": 60.0,
        "Latitude(deg)": -37.30972299781823,
        "Longitude(deg)": -96.25689444291508,
        "Mean Anomaly(deg)": 315.8699491636947,
        "RAAN(deg)": 29.996639606882056,
        "Satellite Name": "Test1 151",
        "Satellite Number": 151,
        "Semi-Major Axis(m)": 6980739.136638005,
        "Time(s)": 80
    },
    {
        "Altitude(m)": 615947.4536142637,
        "Argument of Periapsis(deg)": 0.0009377051321966765,
        "Eccentricity": 0.0,
        "Inclination(deg)": 60.0,
        "Latitude(deg)": -36.82565547174339,
        "Longitude(deg)": -95.81454909067958,
        "Mean Anomaly(deg)": 316.49005530915656,
        "RAAN(deg)": 29.996219557742315,
        "Satellite Name": "Test1 151",
        "Satellite Number": 151,
        "Semi-Major Axis(m)": 6980739.136638005,
        "Time(s)": 90
    },
    {
        "Altitude(m)": 615748.6379176057,
        "Argument of Periapsis(deg)": 0.0010418945913296407,
        "Eccentricity": 0.0,
        "Inclination(deg)": 60.0,
        "Latitude(deg)": -36.339589382579256,
        "Longitude(deg)": -95.378252121954,
        "Mean Anomaly(deg)": 317.1101614546184,
        "RAAN(deg)": 29.995799508602573,
        "Satellite Name": "Test1 151",
        "Satellite Number": 151,
        "Semi-Major Axis(m)": 6980739.136638005,
        "Time(s)": 100
    },
    {
        "Altitude(m)": 615549.5171383918,
        "Argument of Periapsis(deg)": 0.0011460840504626045,
        "Eccentricity": 0.0,
        "Inclination(deg)": 60.0,
        "Latitude(deg)": -35.85158202101774,
        "Longitude(deg)": -94.9478468155972,
        "Mean Anomaly(deg)": 317.7302676000802,
        "RAAN(deg)": 29.99537945946283,
        "Satellite Name": "Test1 151",
        "Satellite Number": 151,
        "Semi-Major Axis(m)": 6980739.136638005,
        "Time(s)": 110
    },
    {
        "Altitude(m)": 615350.1663191753,
        "Argument of Periapsis(deg)": 0.0012502735095955685,
        "Eccentricity": 0.0,
        "Inclination(deg)": 60.0,
        "Latitude(deg)": -35.36168898970313,
        "Longitude(deg)": -94.523179802493,
        "Mean Anomaly(deg)": 318.350373745542,
        "RAAN(deg)": 29.994959410323087,
        "Satellite Name": "Test1 151",
        "Satellite Number": 151,
        "Semi-Major Axis(m)": 6980739.136638005,
        "Time(s)": 120
    },
    {
        "Altitude(m)": 615150.6604560155,
        "Argument of Periapsis(deg)": 0.0013544629687285324,
        "Eccentricity": 0.0,
        "Inclination(deg)": 60.0,
        "Latitude(deg)": -34.869964262521485,
        "Longitude(deg)": -94.10410051583219,
        "Mean Anomaly(deg)": 318.97047989100383,
        "RAAN(deg)": 29.994539361183346,
        "Satellite Name": "Test1 151",
        "Satellite Number": 151,
        "Semi-Major Axis(m)": 6980739.136638005,
        "Time(s)": 130
    },
    {
        "Altitude(m)": 614951.0744654738,
        "Argument of Periapsis(deg)": 0.0014586524278614966,
        "Eccentricity": 0.0,
        "Inclination(deg)": 60.0,
        "Latitude(deg)": -34.3764602421794,
        "Longitude(deg)": -93.69046215022964,
        "Mean Anomaly(deg)": 319.5905860364657,
        "RAAN(deg)": 29.994119312043605,
        "Satellite Name": "Test1 151",
        "Satellite Number": 151,
        "Semi-Major Axis(m)": 6980739.136638005,
        "Time(s)": 140
    },
    {
        "Altitude(m)": 614751.4831516237,
        "Argument of Periapsis(deg)": 0.0015628418869944607,
        "Eccentricity": 0.0,
        "Inclination(deg)": 60.0,
        "Latitude(deg)": -33.88122781608735,
        "Longitude(deg)": -93.28212110449074,
        "Mean Anomaly(deg)": 320.21069218192747,
        "RAAN(deg)": 29.993699262903853,
        "Satellite Name": "Test1 151",
        "Satellite Number": 151,
        "Semi-Major Axis(m)": 6980739.136638005,
        "Time(s)": 150
    },
    {
        "Altitude(m)": 614551.9611731134,
        "Argument of Periapsis(deg)": 0.0016670313461274247,
        "Eccentricity": 0.0,
        "Inclination(deg)": 60.0,
        "Latitude(deg)": -33.384316410560075,
        "Longitude(deg)": -92.87893642140862,
        "Mean Anomaly(deg)": 320.83079832738935,
        "RAAN(deg)": 29.99327921376411,
        "Satellite Name": "Test1 151",
        "Satellite Number": 151,
        "Semi-Major Axis(m)": 6980739.136638005,
        "Time(s)": 160
    },
    {
        "Altitude(m)": 614352.5830102346,
        "Argument of Periapsis(deg)": 0.0017712208052603888,
        "Eccentricity": 0.0,
        "Inclination(deg)": 60.0,
        "Latitude(deg)": -32.885774043357806,
        "Longitude(deg)": -92.48077073793375,
        "Mean Anomaly(deg)": 321.45090447285116,
        "RAAN(deg)": 29.99285916462437,
        "Satellite Name": "Test1 151",
        "Satellite Number": 151,
        "Semi-Major Axis(m)": 6980739.136638005,
        "Time(s)": 170
    },
    {
        "Altitude(m)": 614153.4229320972,
        "Argument of Periapsis(deg)": 0.001875410264393353,
        "Eccentricity": 0.0,
        "Inclination(deg)": 60.0,
        "Latitude(deg)": -32.38564737459137,
        "Longitude(deg)": -92.08748972038188,
        "Mean Anomaly(deg)": 322.071010618313,
        "RAAN(deg)": 29.99243911548463,
        "Satellite Name": "Test1 151",
        "Satellite Number": 151,
        "Semi-Major Axis(m)": 6980739.136638005,
        "Time(s)": 180
    },
    {
        "Altitude(m)": 613954.5549638572,
        "Argument of Periapsis(deg)": 0.0019795997235263173,
        "Eccentricity": 0.0,
        "Inclination(deg)": 60.0,
        "Latitude(deg)": -31.883981756021512,
        "Longitude(deg)": -91.69896149793557,
        "Mean Anomaly(deg)": 322.6911167637748,
        "RAAN(deg)": 29.992019066344888,
        "Satellite Name": "Test1 151",
        "Satellite Number": 151,
        "Semi-Major Axis(m)": 6980739.136638005,
        "Time(s)": 190
    }
]